[{"OBJECT_NAME":"STARLINK-32476","OBJECT_ID":"2024-184U","EPOCH":"2026-03-09T05:23:59.588736","MEAN_MOTION":15.30188754,"ECCENTRICITY":0.00014187,"INCLINATION":53.1614,"RA_OF_ASC_NODE":16.2567,"ARG_OF_PERICENTER":79.6804,"MEAN_ANOMALY":280.4357,"EPHEMERIS_TYPE":0,"CLASSIFICATION_TYPE":"U","NORAD_CAT_ID":61550,"ELEMENT_SET_NO":999,"REV_AT_EPOCH":7843,"BSTAR":0.00013413876,"MEAN_MOTION_DOT":3.614e-5,"MEAN_MOTION_DDOT":0},{"OBJECT_NAME":"FENGYUN 1C DEB","OBJECT_ID":"1999-025FBF","EPOCH":"2026-03-06T07:33:49.292640","MEAN_MOTION":15.04395515,"ECCENTRICITY":0.01189701,"INCLINATION":98.9505,"RA_OF_ASC_NODE":84.7158,"ARG_OF_PERICENTER":75.0888,"MEAN_ANOMALY":286.3472,"EPHEMERIS_TYPE":0,"CLASSIFICATION_TYPE":"U","NORAD_CAT_ID":47029,"ELEMENT_SET_NO":999,"REV_AT_EPOCH":4330,"BSTAR":0.0027080259,"MEAN_MOTION_DOT":0.00044409,"MEAN_MOTION_DDOT":0}]
